HIMAWARI-8              
1 40267U 14060A   24063.48923956 -.00000268  00000+0  00000+0 0  9996
2 40267   0.0225 177.9952 0000850 182.7996 117.7327  1.00270643 34485
